{"fetched_at":"2026-07-22T07:10:13.568Z","source":"https://celestrak.org/NORAD/elements/gp.php?NAME=WORLDVIEW&FORMAT=JSON","constellation":"worldview","records":[{"OBJECT_NAME":"WORLDVIEW-1 (WV-1)","OBJECT_ID":"2007-041A","EPOCH":"2026-07-21T14:55:03.129600","CLASSIFICATION_TYPE":"U","MEAN_MOTION":15.246058,"ECCENTRICITY":0.00021576,"INCLINATION":97.3903,"RA_OF_ASC_NODE":321.8851,"ARG_OF_PERICENTER":180.608,"MEAN_ANOMALY":179.5155,"EPHEMERIS_TYPE":0,"NORAD_CAT_ID":32060,"ELEMENT_SET_NO":999,"REV_AT_EPOCH":4812,"BSTAR":0.00022162876,"MEAN_MOTION_DOT":0.00005395,"MEAN_MOTION_DDOT":0},{"OBJECT_NAME":"WORLDVIEW-2 (WV-2)","OBJECT_ID":"2009-055A","EPOCH":"2026-07-21T14:36:39.161376","CLASSIFICATION_TYPE":"U","MEAN_MOTION":14.3790816,"ECCENTRICITY":0.00055057,"INCLINATION":98.4751,"RA_OF_ASC_NODE":275.5897,"ARG_OF_PERICENTER":114.7017,"MEAN_ANOMALY":245.4744,"EPHEMERIS_TYPE":0,"NORAD_CAT_ID":35946,"ELEMENT_SET_NO":999,"REV_AT_EPOCH":88059,"BSTAR":0.000030938541,"MEAN_MOTION_DOT":5e-7,"MEAN_MOTION_DDOT":0},{"OBJECT_NAME":"WORLDVIEW-3 (WV-3)","OBJECT_ID":"2014-048A","EPOCH":"2026-07-21T14:21:15.925536","CLASSIFICATION_TYPE":"U","MEAN_MOTION":14.85070878,"ECCENTRICITY":0.00017623,"INCLINATION":97.8551,"RA_OF_ASC_NODE":276.9541,"ARG_OF_PERICENTER":146.3604,"MEAN_ANOMALY":213.7723,"EPHEMERIS_TYPE":0,"NORAD_CAT_ID":40115,"ELEMENT_SET_NO":999,"REV_AT_EPOCH":64701,"BSTAR":0.000071369953,"MEAN_MOTION_DOT":0.00000556,"MEAN_MOTION_DDOT":0}]}
